{"type": "FeatureCollection", "features": [{"type": "Feature", "properties": {"name": "East-West Pipeline (Petroline)", "osm_way_ids": [1044430260, 54729631], "source_url": "https://www.openstreetmap.org/way/54729631", "feeder_source_url": "https://www.openstreetmap.org/way/1044430260", "attribution": "© OpenStreetMap contributors, ODbL", "accuracy_note": "Public OSM traced route from Abqaiq processing facilities to Yanbu tank farm. Public community geodata, not a surveyed engineering alignment. Shoreline loading branches are not included."}, "geometry": {"type": "LineString", "coordinates": [[49.6855348, 25.922357], [49.6847141, 25.9214114], [49.6830281, 25.9187073], [49.6796912, 25.9115519], [49.6768175, 25.906438], [49.6715412, 25.8962826], [49.6628165, 25.8816165], [49.6563169, 25.8706222], [49.6439616, 25.8460502], [49.602839, 25.773394], [49.5949847, 25.7656539], [49.5845425, 25.76004], [49.5807275, 25.7563461], [49.5758927, 25.75653], [49.5609483, 25.7507213], [49.5572931, 25.75281], [49.5438165, 25.7486829], [49.5378898, 25.749822], [49.5160694, 25.7451606], [49.4984836, 25.7393877], [49.4982874, 25.735601], [49.4950685, 25.7322496], [49.4829725, 25.7287062], [49.469606, 25.7152312], [49.4395178, 25.6876692], [49.4056239, 25.6564765], [49.4063111, 25.6552031], [49.4065747, 25.6543897], [49.406649, 25.6539071], [49.406724, 25.6528133], [49.4083706, 25.6466869], [49.4033435, 25.6307772], [49.4007356, 25.6277375], [49.3866054, 25.6239544], [49.3769244, 25.6277369], [49.3588982, 25.6312971], [49.3335105, 25.6298188], [49.3243616, 25.6314213], [49.3209951, 25.6329364], [49.3062004, 25.632861], [49.3019194, 25.630525], [49.2954054, 25.63115], [49.2706534, 25.6288255], [49.2380205, 25.6265843], [49.13373, 25.6217556], [49.030575, 25.6175675], [49.000404, 25.6161017], [48.9645123, 25.6149042], [48.9233523, 25.6099414], [48.8957467, 25.6070007], [48.8817127, 25.6055057], [48.8754508, 25.6000201], [48.8743395, 25.5990465], [48.8603958, 25.5966659], [48.8364428, 25.5887132], [48.8321357, 25.5872831], [48.8280985, 25.5867509], [48.8240803, 25.584356], [48.8174777, 25.5804206], [48.8030814, 25.5688461], [48.7902889, 25.5625313], [48.7783151, 25.5527021], [48.7510447, 25.5396882], [48.7234464, 25.531979], [48.6863556, 25.5177565], [48.6608058, 25.5080458], [48.6110364, 25.4894697], [48.5607689, 25.4704598], [48.4949206, 25.4455373], [48.4605672, 25.4324286], [48.3978859, 25.4086457], [48.3511293, 25.3907966], [48.3180622, 25.3780893], [48.3041886, 25.3727171], [48.2674375, 25.361358], [48.2289076, 25.348183], [48.2179774, 25.3426856], [48.1685686, 25.3248514], [48.1285688, 25.3037575], [48.1159602, 25.2970566], [48.065013, 25.2702602], [48.0154309, 25.2436733], [48.0148121, 25.2433634], [48.0122668, 25.2432968], [47.9933679, 25.2402765], [47.9395877, 25.2322274], [47.8839908, 25.2232959], [47.871945, 25.2214548], [47.8680786, 25.2208428], [47.8668425, 25.2206781], [47.8661695, 25.2204142], [47.8655343, 25.2201393], [47.8649786, 25.220018], [47.8640397, 25.2201363], [47.8630026, 25.2201212], [47.8596924, 25.219545], [47.8310564, 25.2150053], [47.753141, 25.203105], [47.7396523, 25.2010178], [47.6677411, 25.1899754], [47.5745223, 25.1754206], [47.5080142, 25.1658939], [47.4787831, 25.1619945], [47.4497948, 25.1574781], [47.4241234, 25.150098], [47.4092624, 25.1461024], [47.4012396, 25.1448004], [47.3746666, 25.1384797], [47.3499728, 25.13229], [47.3213351, 25.1247036], [47.294569, 25.1191493], [47.2880175, 25.1154205], [47.2591663, 25.1107974], [47.233029, 25.1014918], [47.2048223, 25.1007335], [47.173529, 25.0961571], [47.1488917, 25.0922365], [47.1316944, 25.0915115], [47.1115612, 25.0883582], [47.095305, 25.0858121], [47.0603145, 25.0805638], [47.0262986, 25.0753782], [46.9904882, 25.0690451], [46.9392172, 25.0593594], [46.9350099, 25.059801], [46.9262134, 25.0563388], [46.8837895, 25.0469325], [46.8717456, 25.0442665], [46.8394673, 25.0372459], [46.7931425, 25.027811], [46.7396558, 25.016984], [46.7057544, 25.0106624], [46.68069, 25.0052711], [46.6794155, 25.0050028], [46.6776784, 25.0046496], [46.6764258, 25.0043294], [46.6750148, 25.0040282], [46.671626, 25.0031257], [46.6458207, 24.995444], [46.6290541, 24.9917899], [46.6140667, 24.9875965], [46.6137513, 24.9874264], [46.6029242, 24.9792276], [46.5923862, 24.9712865], [46.5908988, 24.9706332], [46.5692839, 24.9613365], [46.5455298, 24.9460412], [46.5337371, 24.940311], [46.5296646, 24.9372895], [46.5268581, 24.9334313], [46.5162178, 24.9265942], [46.5021402, 24.9197422], [46.4943552, 24.9106165], [46.4657972, 24.8893713], [46.4643956, 24.8884228], [46.4595893, 24.8869753], [46.4475016, 24.8838928], [46.4079106, 24.8837659], [46.4021962, 24.8844646], [46.3939713, 24.8832557], [46.3841623, 24.8860248], [46.3810445, 24.8864545], [46.3638964, 24.8873979], [46.3457325, 24.8874061], [46.3335998, 24.8890533], [46.3240011, 24.8904966], [46.3023247, 24.8860636], [46.2990892, 24.8871248], [46.2841315, 24.8830548], [46.2620862, 24.8830682], [46.2531979, 24.8865046], [46.2357787, 24.8873552], [46.2218432, 24.8797425], [46.2134844, 24.8784579], [46.2082588, 24.8798723], [46.2044691, 24.8809059], [46.1927858, 24.8790605], [46.18288, 24.8801996], [46.1753236, 24.8797421], [46.1706773, 24.8776747], [46.1629438, 24.8770274], [46.158602, 24.8757966], [46.1514059, 24.8756127], [46.1432516, 24.8792687], [46.1347264, 24.8782861], [46.1264856, 24.875616], [46.1163309, 24.8662155], [46.1135994, 24.8636895], [46.1076502, 24.8607435], [46.0981933, 24.8537453], [46.0687361, 24.8468547], [46.0482072, 24.8419875], [46.0219377, 24.8387064], [46.0183563, 24.8390796], [45.9913328, 24.8308219], [45.9825895, 24.8296256], [45.9792476, 24.8291987], [45.9616939, 24.8269985], [45.9543362, 24.8259852], [45.9515945, 24.8242122], [45.920981, 24.8181586], [45.8859968, 24.8097195], [45.8407541, 24.7980656], [45.8255448, 24.7945001], [45.8097124, 24.7934708], [45.7830138, 24.7905791], [45.7658616, 24.7887213], [45.7538509, 24.7872149], [45.7473109, 24.7863946], [45.7377834, 24.7851996], [45.7304254, 24.7842767], [45.7177531, 24.7829242], [45.6969841, 24.7807074], [45.6910474, 24.7800738], [45.6847382, 24.7793585], [45.6660664, 24.7772416], [45.6450329, 24.7748569], [45.6405365, 24.7743918], [45.6329903, 24.7736113], [45.6290608, 24.7732049], [45.6168442, 24.7719414], [45.6003974, 24.7702403], [45.5936871, 24.7695408], [45.5818662, 24.7683085], [45.5557011, 24.7655809], [45.5518366, 24.7652016], [45.4897475, 24.7591076], [45.481356, 24.7581108], [45.4593594, 24.7554978], [45.4060107, 24.7491602], [45.4041333, 24.7489372], [45.3384025, 24.7412115], [45.2736753, 24.7348139], [45.2230408, 24.7320484], [45.1619549, 24.7229767], [45.1175048, 24.7158223], [45.0745125, 24.7116343], [44.9901777, 24.7013276], [44.9828151, 24.7004347], [44.8990787, 24.6895393], [44.8074184, 24.6792493], [44.7913483, 24.6780806], [44.7494827, 24.676827], [44.7244751, 24.6705447], [44.707202, 24.6692345], [44.6760803, 24.6638951], [44.6428779, 24.6600113], [44.5974529, 24.653161], [44.5535164, 24.646164], [44.508588, 24.6393427], [44.4540348, 24.6313164], [44.4192955, 24.6262408], [44.3445327, 24.6227176], [44.3311709, 24.6217969], [44.3303745, 24.6217195], [44.2532973, 24.6114996], [44.1781498, 24.6020172], [44.0904379, 24.5908198], [44.0556632, 24.586785], [43.9822547, 24.5712268], [43.9463479, 24.5660219], [43.8846263, 24.556275], [43.8287685, 24.5486605], [43.7705004, 24.5401266], [43.7558247, 24.5380749], [43.6912611, 24.5284355], [43.6671521, 24.5248493], [43.639906, 24.5201055], [43.6092672, 24.5178445], [43.59068, 24.5164306], [43.5826825, 24.5182917], [43.5738533, 24.5168953], [43.5533259, 24.5092433], [43.5380099, 24.5031137], [43.5286702, 24.5003266], [43.4827673, 24.4904632], [43.4760205, 24.4910802], [43.4011618, 24.4820669], [43.3796356, 24.4786623], [43.3440595, 24.4728939], [43.3355425, 24.4710036], [43.3037099, 24.4689345], [43.2723532, 24.4630648], [43.2445491, 24.4584731], [43.2249223, 24.4553062], [43.1986772, 24.4513354], [43.1334296, 24.4427509], [43.0090423, 24.4229127], [42.9636499, 24.4182824], [42.938944, 24.4143582], [42.9182068, 24.4098427], [42.8973701, 24.4071412], [42.8106658, 24.3846727], [42.7352917, 24.3642101], [42.6742619, 24.3483714], [42.6466146, 24.3406118], [42.6290609, 24.3381012], [42.6091252, 24.3341384], [42.4459585, 24.3130923], [42.434961, 24.31179], [42.3516933, 24.2963652], [42.1803411, 24.255188], [42.135702, 24.2512607], [42.1259747, 24.250368], [42.1137296, 24.2491298], [42.070496, 24.245298], [42.0256803, 24.2402801], [41.9710617, 24.2341273], [41.9276, 24.2277381], [41.9098116, 24.2261651], [41.8832297, 24.2224767], [41.8187234, 24.213451], [41.7484276, 24.2065053], [41.7292882, 24.2019666], [41.6819942, 24.1973389], [41.6707267, 24.1989391], [41.4248625, 24.1548389], [41.4135702, 24.1526532], [41.2949963, 24.1394876], [41.2618252, 24.1321481], [41.2450293, 24.1285162], [41.2281659, 24.1253352], [41.2015411, 24.1209909], [41.196516, 24.1202611], [41.1859841, 24.1187228], [41.1456815, 24.1129257], [41.1437764, 24.1126517], [41.0547743, 24.0994055], [41.0313025, 24.0961079], [40.9974119, 24.0909025], [40.9761226, 24.0888717], [40.9203318, 24.0838349], [40.8984598, 24.0803336], [40.8568513, 24.0735136], [40.7602417, 24.0568989], [40.6731136, 24.0431679], [40.6517173, 24.0386406], [40.629716, 24.033988], [40.5512122, 24.0245325], [40.5394502, 24.023173], [40.5264025, 24.0214992], [40.5091326, 24.0193226], [40.5016738, 24.0184201], [40.4461168, 24.011343], [40.4092112, 24.0066625], [40.3907453, 24.0045988], [40.3416194, 23.9978617], [40.2611444, 23.9860929], [40.1844355, 23.9742196], [40.1038376, 23.9621836], [40.0539089, 23.9561275], [39.9959337, 23.9477604], [39.9484876, 23.9395589], [39.9101635, 23.9345551], [39.8968972, 23.9320782], [39.8631818, 23.9233466], [39.8445526, 23.9189847], [39.8237497, 23.9120294], [39.7911772, 23.9013454], [39.7648729, 23.8925634], [39.7442666, 23.8856366], [39.725983, 23.8806444], [39.711214, 23.8786808], [39.6905731, 23.88497], [39.6769719, 23.8894721], [39.6619102, 23.8898994], [39.6544854, 23.8938461], [39.6466225, 23.8938557], [39.6383563, 23.8940824], [39.6338415, 23.8940872], [39.6283459, 23.8942505], [39.6237802, 23.8937692], [39.6196118, 23.8959712], [39.6166608, 23.8984986], [39.6114355, 23.9034888], [39.60888, 23.9059831], [39.6046063, 23.9101541], [39.6005929, 23.9138306], [39.5950982, 23.919091], [39.5941749, 23.9198128], [39.5886006, 23.9225747], [39.5867379, 23.9234282], [39.5846025, 23.9237678], [39.5840963, 23.9237476], [39.5815292, 23.9230901], [39.5779308, 23.9205346], [39.5772449, 23.9202931], [39.5769794, 23.9202512], [39.5759491, 23.9201802], [39.5753258, 23.9202147], [39.5746074, 23.9204351], [39.5718067, 23.9213878], [39.5686834, 23.9217799], [39.5679945, 23.9217356], [39.5546408, 23.9199024], [39.5459232, 23.9187002], [39.5425702, 23.9180623], [39.5309565, 23.9155554], [39.5213503, 23.9154772], [39.517078, 23.9166698], [39.5142643, 23.9173254], [39.5132869, 23.9174814], [39.5010516, 23.9185427], [39.5003054, 23.9184474], [39.4986285, 23.9179311], [39.4977455, 23.9177783], [39.4968035, 23.917762], [39.4961744, 23.9178433], [39.4927433, 23.9187019], [39.4815109, 23.9208657], [39.4810435, 23.920858], [39.4674165, 23.9161756], [39.4624483, 23.914562], [39.4543293, 23.9129327], [39.4442771, 23.9107074], [39.4436373, 23.9107061], [39.4378143, 23.9120688], [39.4327715, 23.9109531], [39.4311511, 23.9107366], [39.4195607, 23.9096808], [39.4107283, 23.9094343], [39.4072285, 23.9095121], [39.3952083, 23.9091712], [39.3723933, 23.9087548], [39.3648859, 23.9105798], [39.3586325, 23.9118176], [39.3577259, 23.9118687], [39.3560692, 23.9122831], [39.3536446, 23.9125398], [39.3364098, 23.9145241], [39.3257334, 23.9150546], [39.3130369, 23.9157536], [39.3109195, 23.9159727], [39.3016734, 23.9172333], [39.3002897, 23.9172954], [39.2962501, 23.9181704], [39.2901652, 23.9184039], [39.2866933, 23.9183012], [39.2854035, 23.9183773], [39.2839037, 23.9186455], [39.2739589, 23.9171929], [39.2715576, 23.9173542], [39.2670222, 23.9159269], [39.2625869, 23.9146022], [39.2581491, 23.9134744], [39.2566385, 23.9128378], [39.2555116, 23.9128404], [39.2521196, 23.9126156], [39.248749, 23.9120759], [39.2446667, 23.9111543], [39.2437384, 23.9106263], [39.2425625, 23.9101271], [39.2413477, 23.9099376], [39.2391188, 23.9092189], [39.2385911, 23.9092029], [39.235937, 23.910335], [39.2338331, 23.9102399], [39.2307954, 23.9096269], [39.2297529, 23.9093642], [39.227295, 23.9081712], [39.2188433, 23.9069839], [39.2156938, 23.9061939], [39.2124626, 23.9048692], [39.2102876, 23.9044622], [39.2098863, 23.9051669], [39.1938989, 23.9012011], [39.1906119, 23.900421], [39.1873249, 23.8996408], [39.184435, 23.8987429], [39.1798531, 23.898311], [39.1782041, 23.8987869], [39.1738287, 23.90018], [39.1704094, 23.8996907], [39.1688825, 23.8990429], [39.1632173, 23.8976557], [39.1622786, 23.8975367], [39.1573479, 23.8983207], [39.1531276, 23.89842], [39.1517265, 23.8980802], [39.1508309, 23.8976799], [39.1500036, 23.8975397], [39.1490714, 23.8976137], [39.1450299, 23.8988908], [39.1361102, 23.8982235], [39.1286211, 23.8976278], [39.1260785, 23.897406], [39.1170467, 23.8981911], [39.1145809, 23.8983701], [39.1054866, 23.8982435], [39.097437, 23.8981331], [39.0950953, 23.8976283], [39.0891693, 23.8964008], [39.0872139, 23.8963123], [39.0825325, 23.8954522], [39.0647007, 23.8899796], [39.0598573, 23.8885135], [39.0480245, 23.8865691], [39.044116, 23.8860575], [39.0360499, 23.8839566], [39.0331436, 23.8836015], [39.0281678, 23.8824068], [39.0239231, 23.8822855], [39.0192363, 23.8821855], [39.0131914, 23.8826109], [39.0041181, 23.8843337], [38.9994545, 23.8852612], [38.9899432, 23.8876995], [38.9883446, 23.8882942], [38.9846499, 23.8902843], [38.9789514, 23.8919982], [38.9723309, 23.8930255], [38.9706054, 23.8932929], [38.963913, 23.8960573], [38.9575395, 23.8986298], [38.9563346, 23.8989716], [38.9549626, 23.9000149], [38.9485136, 23.902224], [38.9418097, 23.903952], [38.9348693, 23.9055192], [38.9282639, 23.9070526], [38.9261505, 23.9076206], [38.9218982, 23.9087636], [38.920854, 23.9091102], [38.916013, 23.9117309], [38.9096141, 23.9149648], [38.9070297, 23.9162397], [38.9000795, 23.9180272], [38.8983017, 23.9185431], [38.8914494, 23.9220489], [38.8905153, 23.9224003], [38.8845753, 23.9233698], [38.8799968, 23.9253631], [38.8756545, 23.9268054], [38.8666857, 23.9284938], [38.8611244, 23.9307138], [38.8573665, 23.9322831], [38.8527535, 23.9332237], [38.8381471, 23.9363515], [38.8209879, 23.9399838], [38.8134147, 23.941795], [38.8058335, 23.9444968], [38.801219, 23.9456642], [38.7987271, 23.9461384], [38.7882465, 23.9484256], [38.7768103, 23.9514078], [38.762953, 23.953103], [38.7575662, 23.9543595], [38.7563647, 23.9542932], [38.7550021, 23.9540396], [38.738389, 23.9476102], [38.7209054, 23.9409314], [38.7180694, 23.9399729], [38.7004303, 23.9361141], [38.6865834, 23.9365928], [38.6834037, 23.9354341], [38.679232, 23.9347233], [38.6740569, 23.933977], [38.6714762, 23.9338644], [38.6578886, 23.9317466], [38.6428419, 23.9292537], [38.6373009, 23.9293735], [38.6360213, 23.9296327], [38.6333527, 23.9302967], [38.6290673, 23.9316542], [38.6130302, 23.9343197], [38.6057234, 23.9355342], [38.5969283, 23.936996], [38.5934809, 23.9376374], [38.5899729, 23.9388282], [38.5842485, 23.9407441], [38.5620478, 23.9460773], [38.5343192, 23.9526328], [38.53198, 23.953212], [38.5285711, 23.9525627], [38.5266075, 23.9520964], [38.5082691, 23.9540315], [38.5022084, 23.9547435], [38.4909324, 23.9553948], [38.4876909, 23.9563561], [38.4848232, 23.9572065], [38.4369384, 23.9718271], [38.4009418, 23.9825526], [38.3949733, 23.984365], [38.3520707, 23.9973925], [38.2974366, 24.0134998], [38.2863714, 24.0011328], [38.2745296, 23.9879877], [38.2740295, 23.9852285], [38.2687784, 23.9793099]]}}]}