{
  "type": "FeatureCollection",
  "features": [
    {
      "type": "Feature",
      "properties": {
        "name": "Suez Canal representative main channel",
        "name:ja": "スエズ運河・代表主線",
        "source": "OpenStreetMap via Overpass Kumi",
        "source_url": "https://www.openstreetmap.org/way/5038117",
        "source_way_ids": [
          5038117,
          925360882
        ],
        "retrieved": "2026-09-29",
        "license": "ODbL 1.0; © OpenStreetMap contributors",
        "direction": "north_to_south",
        "note": "Primary canal alignment including Bitter Lakes; representative route, not navigational instructions. Parallel New Suez Canal omitted.",
        "osm_base_timestamp": "2026-05-31T22:37:44Z",
        "source_urls": [
          "https://www.openstreetmap.org/way/5038117",
          "https://www.openstreetmap.org/way/925360882"
        ]
      },
      "geometry": {
        "type": "LineString",
        "coordinates": [
          [
            32.3263323,
            31.2757122
          ],
          [
            32.3159296,
            31.263163
          ],
          [
            32.306732,
            31.25052
          ],
          [
            32.3051746,
            31.2458591
          ],
          [
            32.3047008,
            31.2401733
          ],
          [
            32.304078,
            31.22865
          ],
          [
            32.3043201,
            31.2200091
          ],
          [
            32.3054006,
            31.1937979
          ],
          [
            32.3086803,
            31.1014816
          ],
          [
            32.3088403,
            31.0969731
          ],
          [
            32.3096587,
            31.0720304
          ],
          [
            32.3133488,
            30.9594838
          ],
          [
            32.3133769,
            30.9585945
          ],
          [
            32.3158008,
            30.8818913
          ],
          [
            32.3167489,
            30.8320084
          ],
          [
            32.3171769,
            30.8184415
          ],
          [
            32.3176686,
            30.8114303
          ],
          [
            32.3192019,
            30.8051192
          ],
          [
            32.3269929,
            30.7775328
          ],
          [
            32.3352981,
            30.748205
          ],
          [
            32.3381828,
            30.7363954
          ],
          [
            32.3408121,
            30.7256303
          ],
          [
            32.3420983,
            30.7200239
          ],
          [
            32.3437284,
            30.7128112
          ],
          [
            32.3440132,
            30.7050453
          ],
          [
            32.3424765,
            30.6978904
          ],
          [
            32.3402451,
            30.6857568
          ],
          [
            32.3367548,
            30.6706217
          ],
          [
            32.3333539,
            30.6563017
          ],
          [
            32.3260934,
            30.6273877
          ],
          [
            32.3242591,
            30.6200147
          ],
          [
            32.3229226,
            30.6164231
          ],
          [
            32.3150775,
            30.6020505
          ],
          [
            32.3119891,
            30.5962367
          ],
          [
            32.3100577,
            30.5918518
          ],
          [
            32.3089951,
            30.5896524
          ],
          [
            32.3048392,
            30.5809316
          ],
          [
            32.3037758,
            30.5709361
          ],
          [
            32.3039459,
            30.5656208
          ],
          [
            32.3051554,
            30.5602506
          ],
          [
            32.3087783,
            30.5496397
          ],
          [
            32.3128009,
            30.544911
          ],
          [
            32.3201183,
            30.5356685
          ],
          [
            32.3280057,
            30.526559
          ],
          [
            32.3342301,
            30.5180562
          ],
          [
            32.3361879,
            30.5135145
          ],
          [
            32.3367884,
            30.5121213
          ],
          [
            32.33897,
            30.5061238
          ],
          [
            32.3437368,
            30.4842783
          ],
          [
            32.345429,
            30.4762973
          ],
          [
            32.3499853,
            30.452174
          ],
          [
            32.3578016,
            30.4352164
          ],
          [
            32.3624522,
            30.4132397
          ],
          [
            32.3650127,
            30.4019029
          ],
          [
            32.3713067,
            30.3644766
          ],
          [
            32.3720005,
            30.3623826
          ],
          [
            32.372923,
            30.3606314
          ],
          [
            32.3743195,
            30.3588558
          ],
          [
            32.4133477,
            30.3140517
          ],
          [
            32.4399232,
            30.2848264
          ],
          [
            32.4428107,
            30.2826557
          ],
          [
            32.4682996,
            30.2733559
          ],
          [
            32.4872741,
            30.2675242
          ],
          [
            32.5064789,
            30.2616627
          ],
          [
            32.5276208,
            30.2540814
          ],
          [
            32.5291657,
            30.2532288
          ],
          [
            32.5345945,
            30.2482797
          ],
          [
            32.5386552,
            30.2428987
          ],
          [
            32.5520503,
            30.223001
          ],
          [
            32.5653977,
            30.2009907
          ],
          [
            32.5676357,
            30.1938811
          ],
          [
            32.5685106,
            30.1864846
          ],
          [
            32.5688656,
            30.1743909
          ],
          [
            32.5690607,
            30.1651974
          ],
          [
            32.5690826,
            30.1643186
          ],
          [
            32.570858,
            30.1002866
          ],
          [
            32.5720382,
            30.0654542
          ],
          [
            32.573102,
            30.0536873
          ],
          [
            32.5827348,
            30.0015228
          ],
          [
            32.5833732,
            29.9983916
          ],
          [
            32.5847448,
            29.9909797
          ],
          [
            32.5858495,
            29.9838726
          ],
          [
            32.5865947,
            29.9784901
          ],
          [
            32.5868369,
            29.9728303
          ],
          [
            32.5861181,
            29.9647534
          ],
          [
            32.58411,
            29.9576437
          ],
          [
            32.5804606,
            29.950635
          ],
          [
            32.5758604,
            29.9436027
          ],
          [
            32.5714007,
            29.9391047
          ],
          [
            32.5672314,
            29.9358924
          ],
          [
            32.5627804,
            29.931928
          ],
          [
            32.5606978,
            29.9303352
          ]
        ]
      }
    }
  ]
}