{
  "type": "FeatureCollection",
  "features": [
    {
      "type": "Feature",
      "properties": {
        "id": "sumed_osm_east",
        "name": "SUMED",
        "source": "https://www.openstreetmap.org/relation/11088523",
        "accuracy": "OSM imagery trace; not surveyed",
        "approximate": true,
        "is_interpolated": false
      },
      "geometry": {
        "type": "LineString",
        "coordinates": [
          [
            32.3214022,
            29.6069879
          ],
          [
            32.3212091,
            29.6072024
          ],
          [
            32.3209838,
            29.6072677
          ],
          [
            32.3204795,
            29.607389
          ],
          [
            32.3199646,
            29.6075009
          ],
          [
            32.3195354,
            29.6076036
          ],
          [
            32.3190151,
            29.6077276
          ],
          [
            32.318311,
            29.607919
          ],
          [
            32.3049555,
            29.6121895
          ],
          [
            32.3043836,
            29.6123957
          ],
          [
            32.3029395,
            29.6126783
          ],
          [
            32.2936258,
            29.6143535
          ],
          [
            32.2786913,
            29.6169651
          ],
          [
            32.2700224,
            29.6186067
          ],
          [
            32.2604952,
            29.6199498
          ],
          [
            32.2526983,
            29.6209369
          ],
          [
            32.2516546,
            29.621069
          ],
          [
            32.2451315,
            29.6218897
          ],
          [
            32.2340593,
            29.6225612
          ],
          [
            32.2182665,
            29.6234566
          ],
          [
            32.2122583,
            29.6239043
          ],
          [
            32.2106275,
            29.6238296
          ],
          [
            32.2096834,
            29.6239789
          ],
          [
            32.2089109,
            29.6245011
          ],
          [
            32.2080526,
            29.6245011
          ],
          [
            32.1835909,
            29.623755
          ],
          [
            32.1550092,
            29.6254711
          ],
          [
            32.1445379,
            29.6256949
          ],
          [
            32.1354398,
            29.6259187
          ],
          [
            32.1341524,
            29.6262172
          ],
          [
            32.1079755,
            29.6343104
          ],
          [
            32.106112,
            29.6348865
          ],
          [
            32.1047125,
            29.6353192
          ],
          [
            32.0787058,
            29.6438982
          ],
          [
            32.060853,
            29.6504625
          ],
          [
            32.0502059,
            29.6538144
          ],
          [
            32.0409463,
            29.6547959
          ],
          [
            32.030582,
            29.6558652
          ],
          [
            32.018064,
            29.6571675
          ],
          [
            32.0086679,
            29.6565322
          ],
          [
            31.9771703,
            29.6543141
          ],
          [
            31.9453249,
            29.6513576
          ],
          [
            31.9307337,
            29.6504625
          ],
          [
            31.9121942,
            29.651656
          ],
          [
            31.8996629,
            29.6537445
          ],
          [
            31.8813582,
            29.6572794
          ],
          [
            31.8806532,
            29.6574155
          ],
          [
            31.8749437,
            29.6585181
          ],
          [
            31.854516,
            29.6635898
          ],
          [
            31.8473062,
            29.6673189
          ],
          [
            31.8196687,
            29.6719427
          ],
          [
            31.8040476,
            29.6771629
          ],
          [
            31.7932329,
            29.678356
          ],
          [
            31.78053,
            29.6771629
          ],
          [
            31.7738352,
            29.6771629
          ],
          [
            31.7518625,
            29.6831285
          ],
          [
            31.7393312,
            29.6952077
          ],
          [
            31.692296,
            29.7223435
          ],
          [
            31.6620836,
            29.7348652
          ],
          [
            31.6510973,
            29.7387406
          ],
          [
            31.6040621,
            29.7375482
          ],
          [
            31.5865526,
            29.7409764
          ],
          [
            31.5517053,
            29.7646725
          ],
          [
            31.5273294,
            29.77406
          ],
          [
            31.5031252,
            29.773911
          ],
          [
            31.4678488,
            29.7646725
          ],
          [
            31.4487943,
            29.774954
          ],
          [
            31.4376363,
            29.7785299
          ],
          [
            31.428195,
            29.7782319
          ],
          [
            31.4252314,
            29.7783257
          ],
          [
            31.4240554,
            29.7782869
          ],
          [
            31.4234748,
            29.7779768
          ],
          [
            31.4210186,
            29.7761292
          ],
          [
            31.4156148,
            29.7744882
          ],
          [
            31.4094816,
            29.7726533
          ],
          [
            31.4046435,
            29.7711674
          ],
          [
            31.4000734,
            29.7698364
          ],
          [
            31.3928535,
            29.7676397
          ],
          [
            31.3923771,
            29.7676268
          ],
          [
            31.3900548,
            29.7682858
          ],
          [
            31.3870031,
            29.7691386
          ],
          [
            31.3812123,
            29.7707797
          ],
          [
            31.3756597,
            29.7724595
          ],
          [
            31.3742455,
            29.7728601
          ],
          [
            31.3731885,
            29.7735062
          ],
          [
            31.3703452,
            29.7760387
          ],
          [
            31.3674424,
            29.7786487
          ],
          [
            31.3628871,
            29.7825765
          ],
          [
            31.3600438,
            29.7850959
          ],
          [
            31.357327,
            29.7875442
          ],
          [
            31.3556002,
            29.7890558
          ],
          [
            31.3535012,
            29.7901927
          ],
          [
            31.3522954,
            29.7905802
          ],
          [
            31.3482427,
            29.794809
          ],
          [
            31.332922,
            29.8010656
          ],
          [
            31.3246071,
            29.8020338
          ],
          [
            31.3211095,
            29.803151
          ],
          [
            31.3166356,
            29.8069307
          ],
          [
            31.3148868,
            29.8079547
          ],
          [
            31.31118,
            29.8076848
          ],
          [
            31.310429,
            29.8073845
          ],
          [
            31.3086668,
            29.8066374
          ],
          [
            31.3021141,
            29.8025202
          ],
          [
            31.3008267,
            29.8018406
          ],
          [
            31.299617,
            29.8011563
          ],
          [
            31.2871206,
            29.8023084
          ],
          [
            31.2796855,
            29.8010004
          ],
          [
            31.2784731,
            29.8012704
          ],
          [
            31.2739885,
            29.8002789
          ],
          [
            31.2713733,
            29.8025156
          ],
          [
            31.2686053,
            29.8025854
          ],
          [
            31.2683719,
            29.8027227
          ],
          [
            31.2671918,
            29.802867
          ],
          [
            31.2652016,
            29.8060742
          ],
          [
            31.2594241,
            29.8065676
          ],
          [
            31.2592578,
            29.8071867
          ],
          [
            31.255492,
            29.8071541
          ],
          [
            31.246984,
            29.8072286
          ],
          [
            31.2439906,
            29.8070424
          ],
          [
            31.242156,
            29.8065397
          ],
          [
            31.2379396,
            29.8050222
          ],
          [
            31.2355739,
            29.8051479
          ],
          [
            31.2349945,
            29.8046312
          ],
          [
            31.2334013,
            29.8047523
          ],
          [
            31.2323713,
            29.8050036
          ],
          [
            31.227479,
            29.8048174
          ],
          [
            31.2254834,
            29.8036956
          ],
          [
            31.2167287,
            29.803933
          ],
          [
            31.2052381,
            29.8052922
          ],
          [
            31.2031701,
            29.8067911
          ],
          [
            31.1893581,
            29.8180307
          ],
          [
            31.1639747,
            29.8381897
          ],
          [
            31.1603409,
            29.8401394
          ],
          [
            31.1481704,
            29.844936
          ],
          [
            31.1305441,
            29.8559967
          ],
          [
            31.1298131,
            29.8564353
          ],
          [
            31.1291879,
            29.8569333
          ],
          [
            31.1173137,
            29.868487
          ],
          [
            31.1017325,
            29.8820221
          ],
          [
            31.0990128,
            29.8845089
          ],
          [
            31.0990192,
            29.8848413
          ],
          [
            31.1001132,
            29.8856752
          ],
          [
            31.1001297,
            29.8860047
          ],
          [
            31.097994,
            29.8880394
          ],
          [
            31.0927702,
            29.8930251
          ],
          [
            31.0913263,
            29.8942938
          ],
          [
            31.0879959,
            29.8970387
          ],
          [
            31.0786039,
            29.9046945
          ],
          [
            31.063394,
            29.9169813
          ],
          [
            31.0464162,
            29.9292012
          ],
          [
            31.0306234,
            29.9409495
          ],
          [
            31.0100381,
            29.957084
          ],
          [
            30.9646876,
            29.9926354
          ],
          [
            30.9622596,
            29.9945383
          ],
          [
            30.9603235,
            29.9961718
          ],
          [
            30.9569967,
            29.9986565
          ],
          [
            30.9568819,
            29.9987418
          ],
          [
            30.9513161,
            30.0031023
          ],
          [
            30.950359,
            30.0038621
          ],
          [
            30.9287207,
            30.0199658
          ],
          [
            30.7355634,
            30.1564879
          ],
          [
            30.7314391,
            30.1594184
          ],
          [
            30.7086989,
            30.1755748
          ],
          [
            30.6962353,
            30.1844121
          ],
          [
            30.6736663,
            30.20046
          ],
          [
            30.6581944,
            30.2109052
          ],
          [
            30.6393307,
            30.2243479
          ],
          [
            30.6354133,
            30.2271392
          ],
          [
            30.6343889,
            30.2278692
          ],
          [
            30.582515,
            30.2641084
          ],
          [
            30.5589437,
            30.2806016
          ],
          [
            30.5193007,
            30.308328
          ],
          [
            30.5100202,
            30.3149134
          ],
          [
            30.4770505,
            30.3343057
          ],
          [
            30.4434264,
            30.3529072
          ],
          [
            30.3703389,
            30.3934152
          ],
          [
            30.3374362,
            30.4169162
          ],
          [
            30.3195619,
            30.4283234
          ],
          [
            30.2936518,
            30.4451959
          ],
          [
            30.2919245,
            30.4464816
          ],
          [
            30.2904761,
            30.4482297
          ],
          [
            30.2851224,
            30.4557583
          ],
          [
            30.2739912,
            30.4666801
          ],
          [
            30.2251053,
            30.5143021
          ],
          [
            30.1520848,
            30.5850678
          ],
          [
            30.1416081,
            30.5951231
          ],
          [
            30.1038748,
            30.6317454
          ],
          [
            30.0824761,
            30.6525884
          ],
          [
            30.0557935,
            30.6782899
          ],
          [
            30.0369269,
            30.6964221
          ],
          [
            30.0323832,
            30.7002852
          ],
          [
            30.0293282,
            30.7028982
          ],
          [
            30.0294542,
            30.7047824
          ],
          [
            30.0245833,
            30.7090165
          ],
          [
            30.0218059,
            30.7115427
          ],
          [
            30.0195274,
            30.713651
          ],
          [
            30.0124651,
            30.7202995
          ],
          [
            30.0056791,
            30.7267763
          ],
          [
            29.9866301,
            30.7449386
          ],
          [
            29.9681389,
            30.7602856
          ],
          [
            29.9203366,
            30.7989396
          ],
          [
            29.9054933,
            30.8109377
          ],
          [
            29.8858166,
            30.8267625
          ],
          [
            29.8837459,
            30.8284346
          ],
          [
            29.8833865,
            30.8289874
          ],
          [
            29.8726523,
            30.8461817
          ]
        ]
      }
    },
    {
      "type": "Feature",
      "properties": {
        "id": "sumed_missing_section",
        "name": "SUMED",
        "source": "https://www.openstreetmap.org/relation/11088523",
        "accuracy": "Interpolated straight connection across an unmapped section; not actual verified route",
        "approximate": true,
        "is_interpolated": true
      },
      "geometry": {
        "type": "LineString",
        "coordinates": [
          [
            29.8726523,
            30.8461817
          ],
          [
            29.7536371,
            30.966451
          ]
        ]
      }
    },
    {
      "type": "Feature",
      "properties": {
        "id": "sumed_osm_west",
        "name": "SUMED",
        "source": "https://www.openstreetmap.org/relation/11088523",
        "accuracy": "OSM imagery trace; not surveyed",
        "approximate": true,
        "is_interpolated": false
      },
      "geometry": {
        "type": "LineString",
        "coordinates": [
          [
            29.7536371,
            30.966451
          ],
          [
            29.7508155,
            30.9696892
          ],
          [
            29.7493134,
            30.9710783
          ],
          [
            29.7475646,
            30.9727801
          ],
          [
            29.73837,
            30.9805898
          ],
          [
            29.7355376,
            30.9829997
          ],
          [
            29.733306,
            30.9850508
          ],
          [
            29.7309135,
            30.9869916
          ],
          [
            29.7272013,
            30.9901923
          ],
          [
            29.7236179,
            30.993632
          ],
          [
            29.7205172,
            30.9971544
          ],
          [
            29.7180711,
            30.9994628
          ],
          [
            29.717481,
            31.0002169
          ],
          [
            29.7121809,
            31.0050724
          ],
          [
            29.7099708,
            31.0072335
          ],
          [
            29.7096275,
            31.0073162
          ],
          [
            29.7093056,
            31.0074082
          ],
          [
            29.7091983,
            31.0074817
          ],
          [
            29.7087074,
            31.0080404
          ],
          [
            29.7083614,
            31.0083565
          ],
          [
            29.7082865,
            31.0085021
          ],
          [
            29.7083185,
            31.0088151
          ],
          [
            29.7083185,
            31.0092013
          ],
          [
            29.707943,
            31.0097806
          ],
          [
            29.7074388,
            31.0107186
          ],
          [
            29.7045254,
            31.0149382
          ],
          [
            29.6968172,
            31.0262023
          ],
          [
            29.6911823,
            31.0342616
          ],
          [
            29.6911119,
            31.0343623
          ],
          [
            29.6908842,
            31.0346879
          ],
          [
            29.6902619,
            31.035359
          ],
          [
            29.6861742,
            31.0410861
          ],
          [
            29.6849404,
            31.0452134
          ],
          [
            29.6844576,
            31.0461785
          ],
          [
            29.6840606,
            31.0467209
          ],
          [
            29.6837388,
            31.0470242
          ],
          [
            29.6834706,
            31.0478423
          ],
          [
            29.6824996,
            31.0510105
          ]
        ]
      }
    }
  ]
}